{"type": "FeatureCollection", "features": [ {"type": "Feature", "properties": {"norad_id": 66850, "name": "STARLINK-36105", "group": "last-30-days", "lat": 10.393517745682189, "lon": -128.42145725315527, "alt_km": 368.3602195339636, "timestamp": "2025-12-22T11:33:19.155771+00:00", "meta": {"OBJECT_NAME": "STARLINK-36105", "OBJECT_ID": "2025-281C", "EPOCH": "2025-12-22T04:00:01.998720", "MEAN_MOTION": 15.67580972, "ECCENTRICITY": 0.0001085, "INCLINATION": 43.0005, "RA_OF_ASC_NODE": 64.8174, "ARG_OF_PERICENTER": 268.9046, "MEAN_ANOMALY": 277.8939, "EPHEMERIS_TYPE": 0, "CLASSIFICATION_TYPE": "U", "NORAD_CAT_ID": 66850, "ELEMENT_SET_NO": 999, "REV_AT_EPOCH": 290, "BSTAR": -0.019741, "MEAN_MOTION_DOT": -0.01954775, "MEAN_MOTION_DDOT": 0}, "tle": {"line1": "1 66850U 25281C   25356.16668980 -.01954775  00000+0 -19741-1 0  9990", "line2": "2 66850  43.0005  64.8174 0001085 268.9046 277.8939 15.67580972  2904"}}, "geometry": {"type": "Point", "coordinates": [-128.42145725315527, 10.393517745682189]}}, {"type": "Feature", "properties": {"norad_id": 66851, "name": "STARLINK-36094", "group": "last-30-days", "lat": 9.112487569317203, "lon": -126.98659558496287, "alt_km": 368.50271492615775, "timestamp": "2025-12-22T11:33:19.155783+00:00", "meta": {"OBJECT_NAME": "STARLINK-36094", "OBJECT_ID": "2025-281D", "EPOCH": "2025-12-22T04:00:01.998720", "MEAN_MOTION": 15.67555769, "ECCENTRICITY": 0.0001206, "INCLINATION": 43.0002, "RA_OF_ASC_NODE": 64.8122, "ARG_OF_PERICENTER": 267.6367, "MEAN_ANOMALY": 281.0863, "EPHEMERIS_TYPE": 0, "CLASSIFICATION_TYPE": "U", "NORAD_CAT_ID": 66851, "ELEMENT_SET_NO": 999, "REV_AT_EPOCH": 290, "BSTAR": -0.019331, "MEAN_MOTION_DOT": -0.01917208, "MEAN_MOTION_DDOT": 0}, "tle": {"line1": "1 66851U 25281D   25356.16668980 -.01917208  00000+0 -19331-1 0  9996", "line2": "2 66851  43.0002  64.8122 0001206 267.6367 281.0863 15.67555769  2901"}}, "geometry": {"type": "Point", "coordinates": [-126.98659558496287, 9.112487569317203]}}, {"type": "Feature", "properties": {"norad_id": 66852, "name": "STARLINK-35992", "group": "last-30-days", "lat": 7.818970737955653, "lon": -125.55344478182309, "alt_km": 368.58527057072115, "timestamp": "2025-12-22T11:33:19.155797+00:00", "meta": {"OBJECT_NAME": "STARLINK-35992", "OBJECT_ID": "2025-281E", "EPOCH": "2025-12-22T04:00:01.998720", "MEAN_MOTION": 15.67573775, "ECCENTRICITY": 0.0001, "INCLINATION": 43.0003, "RA_OF_ASC_NODE": 64.8079, "ARG_OF_PERICENTER": 267.5493, "MEAN_ANOMALY": 283.084, "EPHEMERIS_TYPE": 0, "CLASSIFICATION_TYPE": "U", "NORAD_CAT_ID": 66852, "ELEMENT_SET_NO": 999, "REV_AT_EPOCH": 290, "BSTAR": -0.019614, "MEAN_MOTION_DOT": -0.01943086, "MEAN_MOTION_DDOT": 0}, "tle": {"line1": "1 66852U 25281E   25356.16668980 -.01943086  00000+0 -19614-1 0  9994", "line2": "2 66852  43.0003  64.8079 0001000 267.5493 283.0840 15.67573775  2909"}}, "geometry": {"type": "Point", "coordinates": [-125.55344478182309, 7.818970737955653]}}, {"type": "Feature", "properties": {"norad_id": 66853, "name": "STARLINK-35986", "group": "last-30-days", "lat": 6.524921029407244, "lon": -124.13504614474002, "alt_km": 368.7784417299017, "timestamp": "2025-12-22T11:33:19.155808+00:00", "meta": {"OBJECT_NAME": "STARLINK-35986", "OBJECT_ID": "2025-281F", "EPOCH": "2025-12-22T04:00:01.998720", "MEAN_MOTION": 15.67580596, "ECCENTRICITY": 0.0001105, "INCLINATION": 42.9999, "RA_OF_ASC_NODE": 64.8026, "ARG_OF_PERICENTER": 266.5862, "MEAN_ANOMALY": 285.9574, "EPHEMERIS_TYPE": 0, "CLASSIFICATION_TYPE": "U", "NORAD_CAT_ID": 66853, "ELEMENT_SET_NO": 999, "REV_AT_EPOCH": 290, "BSTAR": -0.019659, "MEAN_MOTION_DOT": -0.01947653, "MEAN_MOTION_DDOT": 0}, "tle": {"line1": "1 66853U 25281F   25356.16668980 -.01947653  00000+0 -19659-1 0  9998", "line2": "2 66853  42.9999  64.8026 0001105 266.5862 285.9574 15.67580596  2903"}}, "geometry": {"type": "Point", "coordinates": [-124.13504614474002, 6.524921029407244]}}, {"type": "Feature", "properties": {"norad_id": 66854, "name": "STARLINK-36087", "group": "last-30-days", "lat": 5.222430114667341, "lon": -122.71858464716131, "alt_km": 368.7837025128483, "timestamp": "2025-12-22T11:33:19.155817+00:00", "meta": {"OBJECT_NAME": "STARLINK-36087", "OBJECT_ID": "2025-281G", "EPOCH": "2025-12-22T04:00:01.998720", "MEAN_MOTION": 15.67556141, "ECCENTRICITY": 8.59e-05, "INCLINATION": 43.0002, "RA_OF_ASC_NODE": 64.7976, "ARG_OF_PERICENTER": 259.3574, "MEAN_ANOMALY": 295.1217, "EPHEMERIS_TYPE": 0, "CLASSIFICATION_TYPE": "U", "NORAD_CAT_ID": 66854, "ELEMENT_SET_NO": 999, "REV_AT_EPOCH": 290, "BSTAR": -0.019386, "MEAN_MOTION_DOT": -0.01921794, "MEAN_MOTION_DDOT": 0}, "tle": {"line1": "1 66854U 25281G   25356.16668980 -.01921794  00000+0 -19386-1 0  9994", "line2": "2 66854  43.0002  64.7976 0000859 259.3574 295.1217 15.67556141  2905"}}, "geometry": {"type": "Point", "coordinates": [-122.71858464716131, 5.222430114667341]}}, {"type": "Feature", "properties": {"norad_id": 66855, "name": "STARLINK-36090", "group": "last-30-days", "lat": 3.918811083344713, "lon": -121.30998080795909, "alt_km": 369.0248849158979, "timestamp": "2025-12-22T11:33:19.155828+00:00", "meta": {"OBJECT_NAME": "STARLINK-36090", "OBJECT_ID": "2025-281H", "EPOCH": "2025-12-22T04:00:01.998720", "MEAN_MOTION": 15.6757809, "ECCENTRICITY": 9.41e-05, "INCLINATION": 43.0003, "RA_OF_ASC_NODE": 64.793, "ARG_OF_PERICENTER": 265.5998, "MEAN_ANOMALY": 290.7869, "EPHEMERIS_TYPE": 0, "CLASSIFICATION_TYPE": "U", "NORAD_CAT_ID": 66855, "ELEMENT_SET_NO": 999, "REV_AT_EPOCH": 278, "BSTAR": -0.019697, "MEAN_MOTION_DOT": -0.01950654, "MEAN_MOTION_DDOT": 0}, "tle": {"line1": "1 66855U 25281H   25356.16668980 -.01950654  00000+0 -19697-1 0  9997", "line2": "2 66855  43.0003  64.7930 0000941 265.5998 290.7869 15.67578090  2785"}}, "geometry": {"type": "Point", "coordinates": [-121.30998080795909, 3.918811083344713]}}, {"type": "Feature", "properties": {"norad_id": 66856, "name": "STARLINK-36072", "group": "last-30-days", "lat": 2.6146354000834027, "lon": -119.90868448868684, "alt_km": 369.238017976576, "timestamp": "2025-12-22T11:33:19.155838+00:00", "meta": {"OBJECT_NAME": "STARLINK-36072", "OBJECT_ID": "2025-281J", "EPOCH": "2025-12-22T04:00:01.998720", "MEAN_MOTION": 15.67577072, "ECCENTRICITY": 9.91e-05, "INCLINATION": 43.0006, "RA_OF_ASC_NODE": 64.7874, "ARG_OF_PERICENTER": 269.713, "MEAN_ANOMALY": 288.5912, "EPHEMERIS_TYPE": 0, "CLASSIFICATION_TYPE": "U", "NORAD_CAT_ID": 66856, "ELEMENT_SET_NO": 999, "REV_AT_EPOCH": 290, "BSTAR": -0.019685, "MEAN_MOTION_DOT": -0.01949599, "MEAN_MOTION_DDOT": 0}, "tle": {"line1": "1 66856U 25281J   25356.16668980 -.01949599  00000+0 -19685-1 0  9991", "line2": "2 66856  43.0006  64.7874 0000991 269.7130 288.5912 15.67577072  2902"}}, "geometry": {"type": "Point", "coordinates": [-119.90868448868684, 2.6146354000834027]}}, {"type": "Feature", "properties": {"norad_id": 66857, "name": "STARLINK-36083", "group": "last-30-days", "lat": 1.3105839832919268, "lon": -118.51137556902415, "alt_km": 369.3460122504621, "timestamp": "2025-12-22T11:33:19.155848+00:00", "meta": {"OBJECT_NAME": "STARLINK-36083", "OBJECT_ID": "2025-281K", "EPOCH": "2025-12-22T04:00:01.998720", "MEAN_MOTION": 15.67569822, "ECCENTRICITY": 9.54e-05, "INCLINATION": 43.0007, "RA_OF_ASC_NODE": 64.7826, "ARG_OF_PERICENTER": 267.8549, "MEAN_ANOMALY": 292.3645, "EPHEMERIS_TYPE": 0, "CLASSIFICATION_TYPE": "U", "NORAD_CAT_ID": 66857, "ELEMENT_SET_NO": 999, "REV_AT_EPOCH": 290, "BSTAR": -0.019525, "MEAN_MOTION_DOT": -0.01935048, "MEAN_MOTION_DDOT": 0}, "tle": {"line1": "1 66857U 25281K   25356.16668980 -.01935048  00000+0 -19525-1 0  9999", "line2": "2 66857  43.0007  64.7826 0000954 267.8549 292.3645 15.67569822  2903"}}, "geometry": {"type": "Point", "coordinates": [-118.51137556902415, 1.3105839832919268]}}, {"type": "Feature", "properties": {"norad_id": 66858, "name": "STARLINK-35118", "group": "last-30-days", "lat": 0.00497575533611971, "lon": -117.114836093626, "alt_km": 369.4738602903499, "timestamp": "2025-12-22T11:33:19.155873+00:00", "meta": {"OBJECT_NAME": "STARLINK-35118", "OBJECT_ID": "2025-281L", "EPOCH": "2025-12-22T04:00:01.998720", "MEAN_MOTION": 15.67584714, "ECCENTRICITY": 0.000105, "INCLINATION": 43.0007, "RA_OF_ASC_NODE": 64.7777, "ARG_OF_PERICENTER": 264.3203, "MEAN_ANOMALY": 297.8059, "EPHEMERIS_TYPE": 0, "CLASSIFICATION_TYPE": "U", "NORAD_CAT_ID": 66858, "ELEMENT_SET_NO": 999, "REV_AT_EPOCH": 269, "BSTAR": -0.01971, "MEAN_MOTION_DOT": -0.01952312, "MEAN_MOTION_DDOT": 0}, "tle": {"line1": "1 66858U 25281L   25356.16668980 -.01952312  00000+0 -19710-1 0  9999", "line2": "2 66858  43.0007  64.7777 0001050 264.3203 297.8059 15.67584714  2698"}}, "geometry": {"type": "Point", "coordinates": [-117.114836093626, 0.00497575533611971]}}, {"type": "Feature", "properties": {"norad_id": 66859, "name": "STARLINK-35646", "group": "last-30-days", "lat": -1.3014595427769482, "lon": -115.71686636270499, "alt_km": 369.61260428315745, "timestamp": "2025-12-22T11:33:19.155884+00:00", "meta": {"OBJECT_NAME": "STARLINK-35646", "OBJECT_ID": "2025-281M", "EPOCH": "2025-12-22T04:00:01.998720", "MEAN_MOTION": 15.67568004, "ECCENTRICITY": 9.96e-05, "INCLINATION": 43.0005, "RA_OF_ASC_NODE": 64.7733, "ARG_OF_PERICENTER": 266.4987, "MEAN_ANOMALY": 297.5535, "EPHEMERIS_TYPE": 0, "CLASSIFICATION_TYPE": "U", "NORAD_CAT_ID": 66859, "ELEMENT_SET_NO": 999, "REV_AT_EPOCH": 290, "BSTAR": -0.0195, "MEAN_MOTION_DOT": -0.01932707, "MEAN_MOTION_DDOT": 0}, "tle": {"line1": "1 66859U 25281M   25356.16668980 -.01932707  00000+0 -19500-1 0  9993", "line2": "2 66859  43.0005  64.7733 0000996 266.4987 297.5535 15.67568004  2903"}}, "geometry": {"type": "Point", "coordinates": [-115.71686636270499, -1.3014595427769482]}}]}